{
    "links": {
        "self": "http://www.neowsapp.com/rest/v1/neo/3557529?api_key=iIulBulltgU6a56xZRHN4H3l9WmuAYTsLGpBGhQ2"
    },
    "id": "3557529",
    "neo_reference_id": "3557529",
    "name": "(2011 CD50)",
    "designation": "2011 CD50",
    "nasa_jpl_url": "http://ssd.jpl.nasa.gov/sbdb.cgi?sstr=3557529",
    "absolute_magnitude_h": 25.1,
    "estimated_diameter": {
        "kilometers": {
            "estimated_diameter_min": 0.0253837029,
            "estimated_diameter_max": 0.0567596853
        },
        "meters": {
            "estimated_diameter_min": 25.3837029364,
            "estimated_diameter_max": 56.7596852866
        },
        "miles": {
            "estimated_diameter_min": 0.0157726969,
            "estimated_diameter_max": 0.0352688224
        },
        "feet": {
            "estimated_diameter_min": 83.279867942,
            "estimated_diameter_max": 186.2194458756
        }
    },
    "is_potentially_hazardous_asteroid": false,
    "close_approach_data": [
        {
            "close_approach_date": "2009-07-22",
            "close_approach_date_full": "2009-Jul-22 21:24",
            "epoch_date_close_approach": 1248297840000,
            "relative_velocity": {
                "kilometers_per_second": "15.1046403488",
                "kilometers_per_hour": "54376.7052557801",
                "miles_per_hour": "33787.5699962929"
            },
            "miss_distance": {
                "astronomical": "0.1542675561",
                "lunar": "60.0100793229",
                "kilometers": "23078097.802665507",
                "miles": "14340065.0169257166"
            },
            "orbiting_body": "Earth"
        },
        {
            "close_approach_date": "2011-01-28",
            "close_approach_date_full": "2011-Jan-28 18:27",
            "epoch_date_close_approach": 1296239220000,
            "relative_velocity": {
                "kilometers_per_second": "11.4659096083",
                "kilometers_per_hour": "41277.2745899002",
                "miles_per_hour": "25648.0932028188"
            },
            "miss_distance": {
                "astronomical": "0.0754753326",
                "lunar": "29.3599043814",
                "kilometers": "11290948.994501562",
                "miles": "7015870.3749510756"
            },
            "orbiting_body": "Earth"
        }
    ],
    "orbital_data": {
        "orbit_id": "5",
        "orbit_determination_date": "2017-04-06 08:54:28",
        "first_observation_date": "2011-02-12",
        "last_observation_date": "2011-02-13",
        "data_arc_in_days": 1,
        "observations_used": 12,
        "orbit_uncertainty": "9",
        "minimum_orbit_intersection": ".0703475",
        "jupiter_tisserand_invariant": "5.567",
        "epoch_osculation": "2455605.5",
        "eccentricity": ".3043392880934007",
        "semi_major_axis": "1.101626331525431",
        "inclination": "15.68874073541279",
        "ascending_node_longitude": "319.9831075799049",
        "orbital_period": "422.3280128457978",
        "perihelion_distance": ".7663581580440367",
        "perihelion_argument": "72.39680441197655",
        "aphelion_distance": "1.436894505006826",
        "perihelion_time": "2455517.974527291616",
        "mean_anomaly": "74.60828838394625",
        "mean_motion": ".8524179998721626",
        "equinox": "J2000",
        "orbit_class": {
            "orbit_class_type": "APO",
            "orbit_class_description": "Near-Earth asteroid orbits which cross the Earth’s orbit similar to that of 1862 Apollo",
            "orbit_class_range": "a (semi-major axis) > 1.0 AU; q (perihelion) < 1.017 AU"
        }
    },
    "is_sentry_object": false
}